*******************************************************************************
 Revised: Jun 17, 2016                Saturn                                699
 
 PHYSICAL DATA (updated 2009-May-26):
  Mass (10^26 kg)       = 5.68319         Density (g/cm^3)       =  0.687+-.001
  Equat. radius (1 bar) = 60268+-4 km     Polar radius (km)      = 54364+-10
  Volumetric mean radius= 58232+-6 km     Flattening             =  0.09796

  Rotation period       = 10h 39m 22.4s   Rot. rate(10^-4 rad/s) =  1.63785 
  m = w^2a^3/GM         =  0.15481        Hydrostatic flat., fh  =  0.09829
  Inferred rot. period  = 10.61+-0.02 hr  ks = 3*J2/m            =  0.317
  Mom. of inert. I/MRo^2=  0.210          I/MRo^2 (upper bound)  =  0.231 
  Rocky core mass (Mc/M)=  0.1027         Y factor (He/H ratio)  =  

  GM (km^3/s^2)         = 37931207.8      GM 1-sigma (km^3/s^2)  = +- 98
  Equ. grav, ge (m/s^2) = 10.44           Pol. grav, gp (m/s^2)  = 12.14+-0.01

  Geometric albedo      =  0.47           Visual magnitude V(1,0)= -8.88
  Vis. mag. (opposition)= +0.67           Obliquity to orbit     = 26.73 deg
  Sidereal orbit period = 29.447498 yr    Sidereal orbit period  = 10755.698 d
  Mean daily motion     = 0.0334979 deg/d Mean orbit velocity    =  9.6624 km/s

  Atmos. temp. (1 bar)  = 134+-4 K        Heat flow/mass (x10^7) = 15 erg/gm*s
  Planetary Solar Const =  15.04 W/m^2    Dipole tilt/offset     = 0.0deg/0.0Rp 
  Escape velocity (km/s)=  35.5           Mag.dip.mom(gauss-Rp^3)= 0.21
  Aroche(ice)/Rp        =  2.71           Hill's sphere rad. Rp  = 1100
*******************************************************************************
 
 
*******************************************************************************
Ephemeris / WWW_USER Tue Jun 20 14:49:54 2017 Pasadena, USA      / Horizons    
*******************************************************************************
Target body name: Saturn (699)                    {source: sat389}
Center body name: Sun (10)                        {source: sat389}
Center-site name: BODY CENTER
*******************************************************************************
Start time      : A.D. 2017-Jun-19 00:00:00.0000 TDB
Stop  time      : A.D. 2030-Jun-19 00:00:00.0000 TDB
Step-size       : 1440 minutes
*******************************************************************************
Center geodetic : 0.00000000,0.00000000,0.0000000 {E-lon(deg),Lat(deg),Alt(km)}
Center cylindric: 0.00000000,0.00000000,0.0000000 {E-lon(deg),Dxy(km),Dz(km)}
Center radii    : 696000.0 x 696000.0 x 696000.0 k{Equator, meridian, pole}    
Output units    : KM-S                                                         
Output type     : GEOMETRIC cartesian states
Output format   : 1 (position only)
Reference frame : ICRF/J2000.0                                                 
Coordinate systm: Ecliptic and Mean Equinox of Reference Epoch                 
*******************************************************************************
            JDTDB,            Calendar Date (TDB),                      X,                      Y,                      Z,
**************************************************************************************************************************
$$SOE
2461109.500000000, A.D. 2026-Mar-10 00:00:00.0000,  1.416438247026206E+09,  9.511567750503397E+07, -5.803884891884372E+07,
2461110.500000000, A.D. 2026-Mar-11 00:00:00.0000,  1.416335610064042E+09,  9.594645900274298E+07, -5.804923668457750E+07,
2461111.500000000, A.D. 2026-Mar-12 00:00:00.0000,  1.416232481321576E+09,  9.677724030461897E+07, -5.805962174472095E+07,
2461112.500000000, A.D. 2026-Mar-13 00:00:00.0000,  1.416128841488722E+09,  9.760802460341525E+07, -5.807000410401523E+07,
2461113.500000000, A.D. 2026-Mar-14 00:00:00.0000,  1.416024674765867E+09,  9.843879778901425E+07, -5.808037501727000E+07,
2461114.500000000, A.D. 2026-Mar-15 00:00:00.0000,  1.415919976711754E+09,  9.926954371890628E+07, -5.809072585051046E+07,
2461115.500000000, A.D. 2026-Mar-16 00:00:00.0000,  1.415814750039118E+09,  1.001002498866826E+08, -5.810105050058997E+07,
2461116.500000000, A.D. 2026-Mar-17 00:00:00.0000,  1.415708998224656E+09,  1.009309018130893E+08, -5.811134205591571E+07,
2461117.500000000, A.D. 2026-Mar-18 00:00:00.0000,  1.415602733291696E+09,  1.017614928119809E+08, -5.812159841922165E+07,
2461118.500000000, A.D. 2026-Mar-19 00:00:00.0000,  1.415495960190960E+09,  1.025920111858742E+08, -5.813181424656197E+07,
2461119.500000000, A.D. 2026-Mar-20 00:00:00.0000,  1.415388702938312E+09,  1.034224482685826E+08, -5.814198746329118E+07,
2461120.500000000, A.D. 2026-Mar-21 00:00:00.0000,  1.415280982934835E+09,  1.042528108720585E+08, -5.815212391641349E+07,
2461121.500000000, A.D. 2026-Mar-22 00:00:00.0000,  1.415172810887781E+09,  1.050831131837382E+08, -5.816223216301470E+07,
2461122.500000000, A.D. 2026-Mar-23 00:00:00.0000,  1.415064194124013E+09,  1.059133657992252E+08, -5.817231856176902E+07,
2461123.500000000, A.D. 2026-Mar-24 00:00:00.0000,  1.414955131242978E+09,  1.067435876498939E+08, -5.818239285399589E+07,
2461124.500000000, A.D. 2026-Mar-25 00:00:00.0000,  1.414845616867543E+09,  1.075737875626148E+08, -5.819245913906848E+07,
2461125.500000000, A.D. 2026-Mar-26 00:00:00.0000,  1.414735642989343E+09,  1.084039829251636E+08, -5.820252577040134E+07,
2461126.500000000, A.D. 2026-Mar-27 00:00:00.0000,  1.414625186819973E+09,  1.092341818988045E+08, -5.821259489826462E+07,
2461127.500000000, A.D. 2026-Mar-28 00:00:00.0000,  1.414514226817842E+09,  1.100643790825603E+08, -5.822266172629741E+07,
2461128.500000000, A.D. 2026-Mar-29 00:00:00.0000,  1.414402755830622E+09,  1.108945661848593E+08, -5.823272132392974E+07,
2461129.500000000, A.D. 2026-Mar-30 00:00:00.0000,  1.414290760765547E+09,  1.117247359206136E+08, -5.824276883115946E+07,
2461130.500000000, A.D. 2026-Mar-31 00:00:00.0000,  1.414178239654911E+09,  1.125548752532953E+08, -5.825279745033646E+07,
2461131.500000000, A.D. 2026-Apr-01 00:00:00.0000,  1.414065185532351E+09,  1.133849744555833E+08, -5.826280173106085E+07,
2461132.500000000, A.D. 2026-Apr-02 00:00:00.0000,  1.413951601504069E+09,  1.142150138737020E+08, -5.827277188358732E+07,
2461133.500000000, A.D. 2026-Apr-03 00:00:00.0000,  1.413837503774997E+09,  1.150449782409410E+08, -5.828270178100707E+07,
2461134.500000000, A.D. 2026-Apr-04 00:00:00.0000,  1.413722909516141E+09,  1.158748670128689E+08, -5.829259300931865E+07,
2461135.500000000, A.D. 2026-Apr-05 00:00:00.0000,  1.413607828799054E+09,  1.167046753163349E+08, -5.830244429043582E+07,
2461136.500000000, A.D. 2026-Apr-06 00:00:00.0000,  1.413492281956247E+09,  1.175344067869465E+08, -5.831225960921341E+07,
2461137.500000000, A.D. 2026-Apr-07 00:00:00.0000,  1.413376280359004E+09,  1.183640682027915E+08, -5.832204373813528E+07,
2461138.500000000, A.D. 2026-Apr-08 00:00:00.0000,  1.413259837965410E+09,  1.191936739048835E+08, -5.833180553945774E+07,
2461139.500000000, A.D. 2026-Apr-09 00:00:00.0000,  1.413142956020519E+09,  1.200232456710121E+08, -5.834155660450134E+07,
2461140.500000000, A.D. 2026-Apr-10 00:00:00.0000,  1.413025617833283E+09,  1.208528010984211E+08, -5.835130452986865E+07,
2461141.500000000, A.D. 2026-Apr-11 00:00:00.0000,  1.412907811944269E+09,  1.216823419865761E+08, -5.836104916487321E+07,
2461142.500000000, A.D. 2026-Apr-12 00:00:00.0000,  1.412789524993263E+09,  1.225118778344235E+08, -5.837079422335239E+07,
2461143.500000000, A.D. 2026-Apr-13 00:00:00.0000,  1.412670740416679E+09,  1.233414066404600E+08, -5.838053716699126E+07,
2461144.500000000, A.D. 2026-Apr-14 00:00:00.0000,  1.412551443214032E+09,  1.241709256557193E+08, -5.839027530651740E+07,
2461145.500000000, A.D. 2026-Apr-15 00:00:00.0000,  1.412431618803983E+09,  1.250004241135018E+08, -5.840000176495995E+07,
2461146.500000000, A.D. 2026-Apr-16 00:00:00.0000,  1.412311259996553E+09,  1.258298830333710E+08, -5.840970614962954E+07,
2461147.500000000, A.D. 2026-Apr-17 00:00:00.0000,  1.412190377265281E+09,  1.266592899765004E+08, -5.841938316574301E+07,
2461148.500000000, A.D. 2026-Apr-18 00:00:00.0000,  1.412068968717777E+09,  1.274886370720536E+08, -5.842902885093898E+07,
2461149.500000000, A.D. 2026-Apr-19 00:00:00.0000,  1.411947044013940E+09,  1.283179091624463E+08, -5.843863643873287E+07,
2461150.500000000, A.D. 2026-Apr-20 00:00:00.0000,  1.411824616781145E+09,  1.291470972774155E+08, -5.844820283641694E+07,
2461151.500000000, A.D. 2026-Apr-21 00:00:00.0000,  1.411701706773540E+09,  1.299761972527088E+08, -5.845772791174550E+07,
2461152.500000000, A.D. 2026-Apr-22 00:00:00.0000,  1.411578335395423E+09,  1.308052123211460E+08, -5.846721565214491E+07,
2461153.500000000, A.D. 2026-Apr-23 00:00:00.0000,  1.411454514892371E+09,  1.316341613604541E+08, -5.847667720762087E+07,
2461154.500000000, A.D. 2026-Apr-24 00:00:00.0000,  1.411330244822445E+09,  1.324630530107168E+08, -5.848611714959820E+07,
2461155.500000000, A.D. 2026-Apr-25 00:00:00.0000,  1.411205531911787E+09,  1.332919020207528E+08, -5.849554379769957E+07,
2461156.500000000, A.D. 2026-Apr-26 00:00:00.0000,  1.411080368668601E+09,  1.341207252416095E+08, -5.850496526879302E+07,
2461157.500000000, A.D. 2026-Apr-27 00:00:00.0000,  1.410954739779790E+09,  1.349495357938060E+08, -5.851438698016092E+07,
2461158.500000000, A.D. 2026-Apr-28 00:00:00.0000,  1.410828628161391E+09,  1.357783386190151E+08, -5.852380995487349E+07,
2461159.500000000, A.D. 2026-Apr-29 00:00:00.0000,  1.410702010753878E+09,  1.366071318798247E+08, -5.853323109532610E+07,
2461160.500000000, A.D. 2026-Apr-30 00:00:00.0000,  1.410574880246875E+09,  1.374359014155751E+08, -5.854264240104073E+07,
2461161.500000000, A.D. 2026-May-01 00:00:00.0000,  1.410447229173168E+09,  1.382646451346760E+08, -5.855204228408742E+07,
2461162.500000000, A.D. 2026-May-02 00:00:00.0000,  1.410319047026601E+09,  1.390933505485447E+08, -5.856142342062933E+07,
